norad_id,name,regime,epoch,line1,line2,inclination,eccentricity,mean_motion,raan,arg_pericenter,mean_anomaly
65486,SHIYAN 29,IGO,25311.86011262,1 65486U 25196A   25311.86011262 -.00000274  00000-0  00000+0 0  2053,2 65486  28.5796  21.3249 0010617 183.1180 247.3142  1.00265791   662,28.5796,0.0010617,1.00265791,21.3249,183.118,247.3142
65486,SHIYAN 29,IGO,25312.19901258,1 65486U 25196A   25312.19901258 -.00000275  00000-0  00000+0 0  2065,2 65486  28.5800  21.3207 0010578 183.2000   9.5647  1.00265711   660,28.58,0.0010578,1.00265711,21.3207,183.2,9.5647
65486,SHIYAN 29,IGO,25312.19901259,1 65486U 25196A   25312.19901259 -.00000275  00000-0  00000-0 0  4283,2 65486  28.5800  21.3207 0010578 183.2000   9.5647  1.00265711   660,28.58,0.0010578,1.00265711,21.3207,183.2,9.5647
65486,SHIYAN 29,IGO,25312.53386409,1 65486U 25196A   25312.53386409 -.00000275  00000-0  00000+0 0  2079,2 65486  28.5805  21.3164 0010550 183.3817 130.2535  1.00265647   660,28.5805,0.001055,1.00265647,21.3164,183.3817,130.2535
65486,SHIYAN 29,IGO,25312.63944273,1 65486U 25196A   25312.63944273 -.00000275  00000-0  00000+0 0  2114,2 65486  28.5806  21.3151 0010540 183.4536 168.2922  1.00265624   661,28.5806,0.001054,1.00265624,21.3151,183.4536,168.2922
65486,SHIYAN 29,IGO,25314.89233554,1 65486U 25196A   25314.89233554 -.00000276  00000-0  00000-0 0  4357,2 65486  28.5832  21.2867 0010301 184.1810 260.7865  1.00265251   694,28.5832,0.0010301,1.00265251,21.2867,184.181,260.7865
65486,SHIYAN 29,IGO,25315.19776169,1 65486U 25196A   25315.19776169 -.00000275  00000-0  00000-0 0  4387,2 65486  28.5836  21.2829 0010278 184.1738  11.0425  1.00265196   695,28.5836,0.0010278,1.00265196,21.2829,184.1738,11.0425
65486,SHIYAN 29,IGO,25316.19766713,1 65486U 25196A   25316.19766713 -.00000274  00000-0  00000-0 0  4426,2 65486  28.5847  21.2703 0010179 184.2918  11.8568  1.00265057   703,28.5847,0.0010179,1.00265057,21.2703,184.2918,11.8568
65486,SHIYAN 29,IGO,25316.75810368,1 65486U 25196A   25316.75810368 -.00000274  00000-0  00000+0 0  2195,2 65486  28.5853  21.2632 0010114 184.3315 214.1153  1.00264990   716,28.5853,0.0010114,1.0026499,21.2632,184.3315,214.1153
65486,SHIYAN 29,IGO,25316.75810369,1 65486U 25196A   25316.75810369 -.00000274  00000-0  00000-0 0  4469,2 65486  28.5853  21.2632 0010114 184.3315 214.1153  1.00264990   716,28.5853,0.0010114,1.0026499,21.2632,184.3315,214.1153
65486,SHIYAN 29,IGO,25317.09559837,1 65486U 25196A   25317.09559837 -.00000273  00000-0  00000-0 0  4488,2 65486  28.5856  21.2590 0010090 184.3288 335.9423  1.00264932   712,28.5856,0.001009,1.00264932,21.259,184.3288,335.9423
65486,SHIYAN 29,IGO,25317.64112243,1 65486U 25196A   25317.64112243 -.00000272  00000-0  00000-0 0  4518,2 65486  28.5862  21.2521 0010046 184.3020 172.8842  1.00264859   719,28.5862,0.0010046,1.00264859,21.2521,184.302,172.8842
65486,SHIYAN 29,IGO,25317.70527185,1 65486U 25196A   25317.70527185 -.00000272  00000-0  00000+0 0  2258,2 65486  28.5863  21.2513 0010038 184.2881 196.0538  1.00264849   726,28.5863,0.0010038,1.00264849,21.2513,184.2881,196.0538
65486,SHIYAN 29,IGO,25317.80006571,1 65486U 25196A   25317.80006571 -.00000272  00000-0  00000+0 0  2261,2 65486  28.5864  21.2501 0010027 184.2898 230.2694  1.00264832   726,28.5864,0.0010027,1.00264832,21.2501,184.2898,230.2694
65486,SHIYAN 29,IGO,25317.96005738,1 65486U 25196A   25317.96005738 -.00000272  00000-0  00000-0 0  4557,2 65486  28.5866  21.2480 0010016 184.2866 288.0243  1.00264804   727,28.5866,0.0010016,1.00264804,21.248,184.2866,288.0243
65486,SHIYAN 29,IGO,25318.12767907,1 65486U 25196A   25318.12767907 -.00000272  00000-0  00000-0 0  4560,2 65486  28.5867  21.2459 0010009 184.2769 348.5397  1.00264771   723,28.5867,0.0010009,1.00264771,21.2459,184.2769,348.5397
65486,SHIYAN 29,IGO,25318.66593302,1 65486U 25196A   25318.66593302 -.00000271  00000-0  00000+0 0  2303,2 65486  28.5873  21.2391 0009976 184.1990 182.9080  1.00264688   738,28.5873,0.0009976,1.00264688,21.2391,184.199,182.908
65486,SHIYAN 29,IGO,25319.77258034,1 65486U 25196A   25319.77258034 -.00000269  00000-0  00000-0 0  4609,2 65486  28.5885  21.2252 0009915 184.0095 222.5577  1.00264475   742,28.5885,0.0009915,1.00264475,21.2252,184.0095,222.5577
65486,SHIYAN 29,IGO,25320.50815068,1 65486U 25196A   25320.50815068 -.00000267  00000-0  00000+0 0  2333,2 65486  28.5892  21.2160 0009894 183.9138 128.1677  1.00264318   748,28.5892,0.0009894,1.00264318,21.216,183.9138,128.1677
65486,SHIYAN 29,IGO,25320.56752911,1 65486U 25196A   25320.56752911 -.00000267  00000-0  00000-0 0  4643,2 65486  28.5892  21.2152 0009893 183.8961 149.6188  1.00264306   743,28.5892,0.0009893,1.00264306,21.2152,183.8961,149.6188
65486,SHIYAN 29,IGO,25320.79128352,1 65486U 25196A   25320.79128352 -.00000267  00000-0  00000+0 0  2348,2 65486  28.5895  21.2124 0009880 183.8226 230.4593  1.00264256   759,28.5895,0.000988,1.00264256,21.2124,183.8226,230.4593
65486,SHIYAN 29,IGO,25321.13462866,1 65486U 25196A   25321.13462866 -.00000266  00000-0  00000-0 0  4700,2 65486  28.5898  21.2081 0009869 183.7515 354.4656  1.00264170   753,28.5898,0.0009869,1.0026417,21.2081,183.7515,354.4656
65486,SHIYAN 29,IGO,25321.65285498,1 65486U 25196A   25321.65285498 -.00000265  00000-0  00000-0 0  4722,2 65486  28.5903  21.2016 0009869 183.6659 181.6113  1.00264052   764,28.5903,0.0009869,1.00264052,21.2016,183.6659,181.6113
65486,SHIYAN 29,IGO,25321.85812161,1 65486U 25196A   25321.85812161 -.00000265  00000-0  00000+0 0  2375,2 65486  28.5905  21.1991 0009864 183.5851 255.7856  1.00264000   765,28.5905,0.0009864,1.00264,21.1991,183.5851,255.7856
65486,SHIYAN 29,IGO,25322.07837574,1 65486U 25196A   25322.07837574 -.00000264  00000-0  00000+0 0  2385,2 65486  28.5907  21.1962 0009858 183.5473 335.3269  1.00263940   763,28.5907,0.0009858,1.0026394,21.1962,183.5473,335.3269
65486,SHIYAN 29,IGO,25322.07837575,1 65486U 25196A   25322.07837575 -.00000264  00000-0  00000-0 0  4750,2 65486  28.5907  21.1962 0009858 183.5473 335.3269  1.00263940   763,28.5907,0.0009858,1.0026394,21.1962,183.5473,335.3269
65486,SHIYAN 29,IGO,25322.84369192,1 65486U 25196A   25322.84369192 -.00000263  00000-0  00000+0 0  2396,2 65486  28.5915  21.1866 0009861 183.4339 251.6902  1.00263742   774,28.5915,0.0009861,1.00263742,21.1866,183.4339,251.6902
65486,SHIYAN 29,IGO,25322.84369193,1 65486U 25196A   25322.84369193 -.00000263  00000-0  00000-0 0  4761,2 65486  28.5915  21.1866 0009861 183.4339 251.6902  1.00263742   774,28.5915,0.0009861,1.00263742,21.1866,183.4339,251.6902
65486,SHIYAN 29,IGO,25323.13886388,1 65486U 25196A   25323.13886388 -.00000262  00000-0  00000-0 0  4774,2 65486  28.5918  21.1828 0009858 183.3752 358.2947  1.00263655   775,28.5918,0.0009858,1.00263655,21.1828,183.3752,358.2947
65486,SHIYAN 29,IGO,25325.13115469,1 65486U 25196A   25325.13115469 -.00000258  00000-0  00000+0 0  2458,2 65486  28.5937  21.1578 0009904 183.1028 357.7046  1.00263050   799,28.5937,0.0009904,1.0026305,21.1578,183.1028,357.7046
65486,SHIYAN 29,IGO,25325.79002485,1 65486U 25196A   25325.79002485 -.00000257  00000-0  00000-0 0  4792,2 65486  28.5944  21.1495 0009930 183.0923 235.5399  1.00262832   800,28.5944,0.000993,1.00262832,21.1495,183.0923,235.5399
65486,SHIYAN 29,IGO,25326.76510193,1 65486U 25196A   25326.76510193 -.00000255  00000-0  00000+0 0  2481,2 65486  28.5953  21.1373 0009968 183.1161 227.4780  1.00262491   817,28.5953,0.0009968,1.00262491,21.1373,183.1161,227.478
65486,SHIYAN 29,IGO,25327.13532144,1 65486U 25196A   25327.13532144 -.00000255  00000-0  00000-0 0  4824,2 65486  28.5957  21.1326 0009988 183.1127   1.1144  1.00262346   813,28.5957,0.0009988,1.00262346,21.1326,183.1127,1.1144
65486,SHIYAN 29,IGO,25327.76797338,1 65486U 25196A   25327.76797338 -.00000254  00000-0  00000+0 0  2502,2 65486  28.5963  21.1246 0010013 183.2030 229.3837  1.00262108   826,28.5963,0.0010013,1.00262108,21.1246,183.203,229.3837
65486,SHIYAN 29,IGO,25328.01666041,1 65486U 25196A   25328.01666041 -.00000253  00000-0  00000+0 0  2517,2 65486  28.5965  21.1215 0010032 183.2263 319.1251  1.00262006   828,28.5965,0.0010032,1.00262006,21.1215,183.2263,319.1251
65486,SHIYAN 29,IGO,25328.06171123,1 65486U 25196A   25328.06171123 -.00000253  00000-0  00000-0 0  4854,2 65486  28.5966  21.1209 0010035 183.2204 335.3923  1.00261987   823,28.5966,0.0010035,1.00261987,21.1209,183.2204,335.3923
65486,SHIYAN 29,IGO,25328.78920152,1 65486U 25196A   25328.78920152 -.00000252  00000-0  00000+0 0  2538,2 65486  28.5973  21.1117 0010065 183.3354 237.8684  1.00261693   834,28.5973,0.0010065,1.00261693,21.1117,183.3354,237.8684
65486,SHIYAN 29,IGO,25328.89317316,1 65486U 25196A   25328.89317316 -.00000252  00000-0  00000-0 0  4883,2 65486  28.5974  21.1105 0010074 183.3721 275.3606  1.00261649   832,28.5974,0.0010074,1.00261649,21.1105,183.3721,275.3606
65486,SHIYAN 29,IGO,25329.08532079,1 65486U 25196A   25329.08532079 -.00000252  00000-0  00000-0 0  4903,2 65486  28.5976  21.1080 0010087 183.4082 344.6808  1.00261564   831,28.5976,0.0010087,1.00261564,21.108,183.4082,344.6808
65486,SHIYAN 29,IGO,25329.83683571,1 65486U 25196A   25329.83683571 -.00000252  00000-0  00000+0 0  2558,2 65486  28.5984  21.0985 0010119 183.5789 255.7719  1.00261244   843,28.5984,0.0010119,1.00261244,21.0985,183.5789,255.7719
65486,SHIYAN 29,IGO,25329.94371788,1 65486U 25196A   25329.94371788 -.00000251  00000-0  00000-0 0  4949,2 65486  28.5985  21.0972 0010127 183.6293 294.3008  1.00261196   846,28.5985,0.0010127,1.00261196,21.0972,183.6293,294.3008
65486,SHIYAN 29,IGO,25330.03601419,1 65486U 25196A   25330.03601419 -.00000251  00000-0  00000-0 0  4959,2 65486  28.5986  21.0960 0010133 183.6647 327.5798  1.00261152   841,28.5986,0.0010133,1.00261152,21.096,183.6647,327.5798
65486,SHIYAN 29,IGO,25330.76560983,1 65486U 25196A   25330.76560983 -.00000251  00000-0  00000-0 0  4982,2 65486  28.5994  21.0867 0010163 183.7843 230.8093  1.00260827   851,28.5994,0.0010163,1.00260827,21.0867,183.7843,230.8093
